{
    "type": "FeatureCollection",
    "features": [
        {
            "type": "Feature",
            "geometry": {
                "type": "Polygon",
                "coordinates": [
                    [
                        [
                            4.7791875924673,
                            45.590455928261
                        ],
                        [
                            4.7771292183341,
                            45.587395458322
                        ],
                        [
                            4.7820837628775,
                            45.580581569271
                        ],
                        [
                            4.8084395836887,
                            45.572351548124
                        ],
                        [
                            4.7914323656919,
                            45.565237175714
                        ],
                        [
                            4.7666301757156,
                            45.557110931779
                        ],
                        [
                            4.7589376604656,
                            45.571588711551
                        ],
                        [
                            4.7533635900049,
                            45.577167342803
                        ],
                        [
                            4.7414784656282,
                            45.571628166749
                        ],
                        [
                            4.7340155581824,
                            45.576987364126
                        ],
                        [
                            4.725701907997,
                            45.573563866025
                        ],
                        [
                            4.7127838100769,
                            45.574154129754
                        ],
                        [
                            4.7101325630467,
                            45.586991451106
                        ],
                        [
                            4.7185581850684,
                            45.589152543703
                        ],
                        [
                            4.720067671333,
                            45.594430927007
                        ],
                        [
                            4.7313013071952,
                            45.590365748298
                        ],
                        [
                            4.7511207554329,
                            45.593585087409
                        ],
                        [
                            4.7566762611522,
                            45.600396002053
                        ],
                        [
                            4.7581676013424,
                            45.607889949482
                        ],
                        [
                            4.7647614807944,
                            45.609311581608
                        ],
                        [
                            4.7737836414292,
                            45.611770011312
                        ],
                        [
                            4.7890481603222,
                            45.619042904526
                        ],
                        [
                            4.8023634373289,
                            45.621360483874
                        ],
                        [
                            4.804232261424,
                            45.630185457596
                        ],
                        [
                            4.7959409768277,
                            45.636983369422
                        ],
                        [
                            4.7789837170492,
                            45.639425204942
                        ],
                        [
                            4.7758368930863,
                            45.648044245825
                        ],
                        [
                            4.7688084248209,
                            45.650176996659
                        ],
                        [
                            4.7755750874921,
                            45.651373794546
                        ],
                        [
                            4.7899302400836,
                            45.661957721078
                        ],
                        [
                            4.7890505228665,
                            45.665262911177
                        ],
                        [
                            4.7812337798041,
                            45.672814109936
                        ],
                        [
                            4.7747478103733,
                            45.68666767134
                        ],
                        [
                            4.7642519584579,
                            45.689519364938
                        ],
                        [
                            4.7701286209032,
                            45.709149151488
                        ],
                        [
                            4.7784329549905,
                            45.719677454988
                        ],
                        [
                            4.7801165107648,
                            45.722883545162
                        ],
                        [
                            4.7717666896245,
                            45.728780570235
                        ],
                        [
                            4.7631179380031,
                            45.726448222457
                        ],
                        [
                            4.7356968320731,
                            45.725372304455
                        ],
                        [
                            4.7263930592159,
                            45.734571740401
                        ],
                        [
                            4.7275610956904,
                            45.737787371603
                        ],
                        [
                            4.7119699715308,
                            45.735417661831
                        ],
                        [
                            4.7100655669582,
                            45.749364162039
                        ],
                        [
                            4.7160493008559,
                            45.753963215101
                        ],
                        [
                            4.7061197555164,
                            45.760743906066
                        ],
                        [
                            4.7151702228122,
                            45.767842879973
                        ],
                        [
                            4.7119615513878,
                            45.773941626156
                        ],
                        [
                            4.6966287714163,
                            45.777820166675
                        ],
                        [
                            4.6924077436005,
                            45.790374418095
                        ],
                        [
                            4.706660610119,
                            45.794214730774
                        ],
                        [
                            4.702036340434,
                            45.797373059829
                        ],
                        [
                            4.692706053788,
                            45.812374877714
                        ],
                        [
                            4.6950561227558,
                            45.825152053398
                        ],
                        [
                            4.7103947436643,
                            45.827520201104
                        ],
                        [
                            4.7219906184925,
                            45.823076438609
                        ],
                        [
                            4.7319666790815,
                            45.828731631863
                        ],
                        [
                            4.7360163531292,
                            45.837381109593
                        ],
                        [
                            4.7344475970031,
                            45.851591374902
                        ],
                        [
                            4.7333248263456,
                            45.856880454751
                        ],
                        [
                            4.7425116950921,
                            45.878376940482
                        ],
                        [
                            4.746586640832,
                            45.878740085555
                        ],
                        [
                            4.7537262867962,
                            45.859414602301
                        ],
                        [
                            4.7660363768445,
                            45.847943194058
                        ],
                        [
                            4.7710316684585,
                            45.850220372452
                        ],
                        [
                            4.7824658933901,
                            45.856768035828
                        ],
                        [
                            4.7876990928621,
                            45.869124340498
                        ],
                        [
                            4.7898968663559,
                            45.871727773298
                        ],
                        [
                            4.7893470633598,
                            45.888999747422
                        ],
                        [
                            4.7925194837385,
                            45.897233456237
                        ],
                        [
                            4.7703915460326,
                            45.897672153769
                        ],
                        [
                            4.7636115423821,
                            45.896555831892
                        ],
                        [
                            4.7373185266729,
                            45.902565294244
                        ],
                        [
                            4.7337002941145,
                            45.911238814328
                        ],
                        [
                            4.7342201897208,
                            45.911317311972
                        ],
                        [
                            4.7375113093726,
                            45.911382091458
                        ],
                        [
                            4.7493708234905,
                            45.924022740973
                        ],
                        [
                            4.7587228107411,
                            45.930370100008
                        ],
                        [
                            4.7611206545522,
                            45.934999414738
                        ],
                        [
                            4.7717568016091,
                            45.939225276574
                        ],
                        [
                            4.7800812505431,
                            45.936389764527
                        ],
                        [
                            4.788988719351,
                            45.923549076526
                        ],
                        [
                            4.8077613267301,
                            45.920798861077
                        ],
                        [
                            4.8106803206002,
                            45.909753367078
                        ],
                        [
                            4.8040949431868,
                            45.898060875399
                        ],
                        [
                            4.8051772742563,
                            45.8963268141
                        ],
                        [
                            4.8348142747029,
                            45.908769920371
                        ],
                        [
                            4.8491205850278,
                            45.912862264831
                        ],
                        [
                            4.8645060523469,
                            45.904617380238
                        ],
                        [
                            4.8723324221401,
                            45.897129878677
                        ],
                        [
                            4.8720851526101,
                            45.893533692506
                        ],
                        [
                            4.8806970810747,
                            45.897164902283
                        ],
                        [
                            4.8838320029013,
                            45.879991282684
                        ],
                        [
                            4.8996313237549,
                            45.877472281361
                        ],
                        [
                            4.909010250355,
                            45.874107574527
                        ],
                        [
                            4.9005726601391,
                            45.857602058876
                        ],
                        [
                            4.9095218717724,
                            45.853392366573
                        ],
                        [
                            4.916118270017,
                            45.845459412501
                        ],
                        [
                            4.9211104796155,
                            45.832737887992
                        ],
                        [
                            4.9183393864864,
                            45.807029655084
                        ],
                        [
                            4.9237976894917,
                            45.803994890806
                        ],
                        [
                            4.943768407874,
                            45.80953114067
                        ],
                        [
                            4.9515185618189,
                            45.808765992446
                        ],
                        [
                            4.9630797552526,
                            45.81097149163
                        ],
                        [
                            4.9703748022525,
                            45.807380036382
                        ],
                        [
                            4.9800144279339,
                            45.805626004492
                        ],
                        [
                            4.9816090942072,
                            45.805451195255
                        ],
                        [
                            4.9939507088126,
                            45.808171298324
                        ],
                        [
                            5.0012059518064,
                            45.810119209108
                        ],
                        [
                            5.0166901329436,
                            45.805609968527
                        ],
                        [
                            5.037805811214,
                            45.808344773332
                        ],
                        [
                            5.0447940598393,
                            45.811733296559
                        ],
                        [
                            5.058156752712,
                            45.80992488223
                        ],
                        [
                            5.0603023049266,
                            45.799351823979
                        ],
                        [
                            5.0591628197876,
                            45.782125976098
                        ],
                        [
                            5.0529655846885,
                            45.775212714027
                        ],
                        [
                            5.0522871597173,
                            45.765371280403
                        ],
                        [
                            5.0362588220612,
                            45.767693047297
                        ],
                        [
                            5.0362027088399,
                            45.762608209797
                        ],
                        [
                            5.0475293053326,
                            45.751037880805
                        ],
                        [
                            5.0192352749288,
                            45.752257881573
                        ],
                        [
                            4.9949839831059,
                            45.746511989006
                        ],
                        [
                            4.9877113934825,
                            45.74251938658
                        ],
                        [
                            4.9783111508007,
                            45.731489041565
                        ],
                        [
                            4.9736145116609,
                            45.720663064376
                        ],
                        [
                            4.9785016097747,
                            45.712693850921
                        ],
                        [
                            4.9866142236126,
                            45.713065466969
                        ],
                        [
                            5.0000611777323,
                            45.708156193015
                        ],
                        [
                            4.9908596217709,
                            45.685194542621
                        ],
                        [
                            4.9910624748434,
                            45.67740289729
                        ],
                        [
                            4.9748651185433,
                            45.6810713689
                        ],
                        [
                            4.9693874476671,
                            45.676609418703
                        ],
                        [
                            4.9745259087432,
                            45.668611628494
                        ],
                        [
                            4.9697643007046,
                            45.664020064175
                        ],
                        [
                            4.9684848372246,
                            45.655026711415
                        ],
                        [
                            4.9632330518647,
                            45.651233442788
                        ],
                        [
                            4.9593819886233,
                            45.641782224918
                        ],
                        [
                            4.9504901644218,
                            45.646400820269
                        ],
                        [
                            4.918889507362,
                            45.659466178417
                        ],
                        [
                            4.9172715276989,
                            45.648206477603
                        ],
                        [
                            4.892332948166,
                            45.641801784291
                        ],
                        [
                            4.8970599283224,
                            45.660098238562
                        ],
                        [
                            4.8879682108598,
                            45.664551197565
                        ],
                        [
                            4.8574557918981,
                            45.662034924899
                        ],
                        [
                            4.8563265518397,
                            45.641537606728
                        ],
                        [
                            4.8478772711874,
                            45.63353587334
                        ],
                        [
                            4.8361652624494,
                            45.631322649516
                        ],
                        [
                            4.8221413043861,
                            45.633299804417
                        ],
                        [
                            4.819572392292,
                            45.641316343339
                        ],
                        [
                            4.8086605652678,
                            45.635938401772
                        ],
                        [
                            4.8073205140573,
                            45.628946954325
                        ],
                        [
                            4.8012960405633,
                            45.610403288772
                        ],
                        [
                            4.7906516788711,
                            45.597450800436
                        ],
                        [
                            4.7791875924673,
                            45.590455928261
                        ]
                    ]
                ]
            },
            "properties": {
                "city": "Lyon"
            }
        }
    ]
}