{
    "type": "FeatureCollection",
    "features": [
        {
            "type": "Feature",
            "geometry": {
                "type": "Polygon",
                "coordinates": [
                    [
                        [
                            6.122385358526,
                            48.998521656701
                        ],
                        [
                            6.1160857198381,
                            48.995761691709
                        ],
                        [
                            6.1083528714732,
                            48.993492112211
                        ],
                        [
                            6.0925812900392,
                            48.993471480233
                        ],
                        [
                            6.0792329919405,
                            49.004174429223
                        ],
                        [
                            6.0814014479043,
                            49.009368654664
                        ],
                        [
                            6.084267836558,
                            49.013822287293
                        ],
                        [
                            6.0895948381374,
                            49.021864201208
                        ],
                        [
                            6.0832128161507,
                            49.042265299749
                        ],
                        [
                            6.0786067122352,
                            49.045747137829
                        ],
                        [
                            6.0889929542504,
                            49.051755006899
                        ],
                        [
                            6.0974491401215,
                            49.061697323196
                        ],
                        [
                            6.1035322110674,
                            49.079005203479
                        ],
                        [
                            6.1003723699989,
                            49.085995638198
                        ],
                        [
                            6.0911715657947,
                            49.086797773646
                        ],
                        [
                            6.0867247030318,
                            49.073892594197
                        ],
                        [
                            6.0765599071713,
                            49.063816154769
                        ],
                        [
                            6.0702909291771,
                            49.063676932158
                        ],
                        [
                            6.0608154677149,
                            49.069647938855
                        ],
                        [
                            6.0595565932044,
                            49.073820960711
                        ],
                        [
                            6.047144358631,
                            49.079121365613
                        ],
                        [
                            6.035667862969,
                            49.075997150075
                        ],
                        [
                            6.0317301844295,
                            49.083728655158
                        ],
                        [
                            6.0206562968275,
                            49.085563289708
                        ],
                        [
                            6.0199148087899,
                            49.079748598633
                        ],
                        [
                            6.0051922689275,
                            49.084536582972
                        ],
                        [
                            6.0092823461783,
                            49.101780975508
                        ],
                        [
                            6.0049803759612,
                            49.113894996182
                        ],
                        [
                            6.0021481156172,
                            49.116464363096
                        ],
                        [
                            5.9922031045278,
                            49.125781670329
                        ],
                        [
                            5.9910062735317,
                            49.135587048488
                        ],
                        [
                            5.9840955857094,
                            49.141705865602
                        ],
                        [
                            5.9967898222227,
                            49.148687059074
                        ],
                        [
                            5.9995678578647,
                            49.155752596517
                        ],
                        [
                            6.0111870326259,
                            49.153496506936
                        ],
                        [
                            6.0184837805758,
                            49.161765666263
                        ],
                        [
                            6.0311289210994,
                            49.167484065125
                        ],
                        [
                            6.0385843974856,
                            49.173903608263
                        ],
                        [
                            6.0245223803951,
                            49.181288950586
                        ],
                        [
                            6.0210017989468,
                            49.18871168015
                        ],
                        [
                            6.0258766979525,
                            49.196420205106
                        ],
                        [
                            6.0404526838728,
                            49.197549285197
                        ],
                        [
                            6.0572190537612,
                            49.194727118461
                        ],
                        [
                            6.0583540535746,
                            49.189822782735
                        ],
                        [
                            6.0549523474478,
                            49.18300924677
                        ],
                        [
                            6.057505525639,
                            49.17581506151
                        ],
                        [
                            6.0679629221995,
                            49.17554269984
                        ],
                        [
                            6.0880578860553,
                            49.172209096341
                        ],
                        [
                            6.1066821892827,
                            49.164257411617
                        ],
                        [
                            6.1238867552168,
                            49.165810429582
                        ],
                        [
                            6.1313997958993,
                            49.169656017161
                        ],
                        [
                            6.1529740456314,
                            49.170877929333
                        ],
                        [
                            6.1512980565814,
                            49.184953614991
                        ],
                        [
                            6.1507773547731,
                            49.188641838548
                        ],
                        [
                            6.1768123001572,
                            49.18863795874
                        ],
                        [
                            6.1796983841153,
                            49.185208344103
                        ],
                        [
                            6.1864910605751,
                            49.1780456008
                        ],
                        [
                            6.2024903384288,
                            49.178052022959
                        ],
                        [
                            6.209333540915,
                            49.170706527902
                        ],
                        [
                            6.2065377823265,
                            49.157788830547
                        ],
                        [
                            6.2236360444818,
                            49.166617114073
                        ],
                        [
                            6.2331475042673,
                            49.159228243519
                        ],
                        [
                            6.2478802073889,
                            49.164127840095
                        ],
                        [
                            6.2521198791262,
                            49.156918224427
                        ],
                        [
                            6.2502549348573,
                            49.15241008182
                        ],
                        [
                            6.2567031857733,
                            49.146314783355
                        ],
                        [
                            6.258353283605,
                            49.146096431578
                        ],
                        [
                            6.2720888076564,
                            49.139665818407
                        ],
                        [
                            6.2853365172835,
                            49.144879314474
                        ],
                        [
                            6.288919511102,
                            49.135619929366
                        ],
                        [
                            6.276130385563,
                            49.129213721877
                        ],
                        [
                            6.2613014304138,
                            49.123871189685
                        ],
                        [
                            6.2596061167514,
                            49.123207168384
                        ],
                        [
                            6.2456033689463,
                            49.120579528968
                        ],
                        [
                            6.2427257934788,
                            49.119683526092
                        ],
                        [
                            6.2509800636997,
                            49.118280905244
                        ],
                        [
                            6.2517766608962,
                            49.109721435046
                        ],
                        [
                            6.2451932711393,
                            49.097993138679
                        ],
                        [
                            6.2541136529464,
                            49.092960054427
                        ],
                        [
                            6.2694420700561,
                            49.097792149854
                        ],
                        [
                            6.2819865931049,
                            49.099520879724
                        ],
                        [
                            6.2877900237005,
                            49.096576176747
                        ],
                        [
                            6.2962405552084,
                            49.090835469806
                        ],
                        [
                            6.3053039319629,
                            49.084893644328
                        ],
                        [
                            6.3213042699107,
                            49.090417082172
                        ],
                        [
                            6.3298006231688,
                            49.087785434412
                        ],
                        [
                            6.3425937348325,
                            49.08918328178
                        ],
                        [
                            6.3471965853663,
                            49.086726116972
                        ],
                        [
                            6.3471976443891,
                            49.07668545929
                        ],
                        [
                            6.343699648228,
                            49.074147842743
                        ],
                        [
                            6.322078879727,
                            49.069409318451
                        ],
                        [
                            6.3222097025605,
                            49.061703097693
                        ],
                        [
                            6.3144580406641,
                            49.070032030944
                        ],
                        [
                            6.298112420115,
                            49.067947780567
                        ],
                        [
                            6.2982238963637,
                            49.062874510904
                        ],
                        [
                            6.2910660436425,
                            49.047906062175
                        ],
                        [
                            6.2968856375701,
                            49.042319707705
                        ],
                        [
                            6.3069328481953,
                            49.031845909575
                        ],
                        [
                            6.2753304483449,
                            49.028879614588
                        ],
                        [
                            6.2662696668681,
                            49.028475894242
                        ],
                        [
                            6.2592883683486,
                            49.042308755924
                        ],
                        [
                            6.2488765198863,
                            49.042945561487
                        ],
                        [
                            6.2389927154989,
                            49.046473953795
                        ],
                        [
                            6.2315852797873,
                            49.043710144419
                        ],
                        [
                            6.2251581707924,
                            49.053312245636
                        ],
                        [
                            6.2166461280746,
                            49.055545556589
                        ],
                        [
                            6.2116664597832,
                            49.052122443061
                        ],
                        [
                            6.1856169873615,
                            49.042644890813
                        ],
                        [
                            6.1796838461123,
                            49.041990480216
                        ],
                        [
                            6.1767910120903,
                            49.03659569767
                        ],
                        [
                            6.1835046888828,
                            49.024215986393
                        ],
                        [
                            6.1801859874796,
                            49.021173185303
                        ],
                        [
                            6.1810677470788,
                            49.020155408126
                        ],
                        [
                            6.170685829594,
                            49.007263520852
                        ],
                        [
                            6.1690173962748,
                            49.005007407858
                        ],
                        [
                            6.1600280603722,
                            49.004923276475
                        ],
                        [
                            6.1311660706265,
                            48.998729212309
                        ],
                        [
                            6.122385358526,
                            48.998521656701
                        ]
                    ]
                ]
            },
            "properties": {
                "city": "Metz"
            }
        }
    ]
}