{
    "type": "FeatureCollection",
    "features": [
        {
            "type": "Feature",
            "geometry": {
                "type": "Polygon",
                "coordinates": [
                    [
                        [
                            1.9593777233499,
                            47.761342798404
                        ],
                        [
                            1.9512500246299,
                            47.760147842514
                        ],
                        [
                            1.9410708897302,
                            47.76573418163
                        ],
                        [
                            1.925605598615,
                            47.764601390119
                        ],
                        [
                            1.924617536771,
                            47.771613244245
                        ],
                        [
                            1.9151003270948,
                            47.782868727222
                        ],
                        [
                            1.9274292853703,
                            47.78500930148
                        ],
                        [
                            1.9211104287017,
                            47.800374605022
                        ],
                        [
                            1.9213949580128,
                            47.813158632643
                        ],
                        [
                            1.9188245729022,
                            47.817073769714
                        ],
                        [
                            1.922842607216,
                            47.823823644051
                        ],
                        [
                            1.9145951397075,
                            47.831667468072
                        ],
                        [
                            1.9061073992222,
                            47.833656998094
                        ],
                        [
                            1.8867603099526,
                            47.834413719227
                        ],
                        [
                            1.8608574339504,
                            47.832644694573
                        ],
                        [
                            1.8296874559202,
                            47.827990257274
                        ],
                        [
                            1.8077633102969,
                            47.842366349466
                        ],
                        [
                            1.8183981072217,
                            47.842060829557
                        ],
                        [
                            1.8015486971358,
                            47.856959283634
                        ],
                        [
                            1.8099162222866,
                            47.863492705398
                        ],
                        [
                            1.8020333317735,
                            47.864708613095
                        ],
                        [
                            1.8120760701102,
                            47.869429057108
                        ],
                        [
                            1.8111587304317,
                            47.875452122519
                        ],
                        [
                            1.8027121207498,
                            47.884683885831
                        ],
                        [
                            1.8064332940776,
                            47.890640680097
                        ],
                        [
                            1.8049902345097,
                            47.899104677015
                        ],
                        [
                            1.7949263229207,
                            47.898517577982
                        ],
                        [
                            1.7784182382531,
                            47.908743713423
                        ],
                        [
                            1.7677510483167,
                            47.918045182015
                        ],
                        [
                            1.774772136371,
                            47.918349048303
                        ],
                        [
                            1.7755755364704,
                            47.924557957804
                        ],
                        [
                            1.7843961933237,
                            47.930697054277
                        ],
                        [
                            1.7746130401464,
                            47.958412371804
                        ],
                        [
                            1.7805440700716,
                            47.967253930533
                        ],
                        [
                            1.7903602943726,
                            47.963343878008
                        ],
                        [
                            1.8080731175797,
                            47.972957127586
                        ],
                        [
                            1.8128196809659,
                            47.973653167534
                        ],
                        [
                            1.8268144893601,
                            47.956493262584
                        ],
                        [
                            1.8422118217407,
                            47.959841941356
                        ],
                        [
                            1.8587892393654,
                            47.970027617394
                        ],
                        [
                            1.865475334897,
                            47.971044545072
                        ],
                        [
                            1.870507023106,
                            47.965616363217
                        ],
                        [
                            1.887476774286,
                            47.967666411556
                        ],
                        [
                            1.8997458267476,
                            47.965606527514
                        ],
                        [
                            1.9196285267094,
                            47.964774803574
                        ],
                        [
                            1.9291659385385,
                            47.969484523158
                        ],
                        [
                            1.9353221932698,
                            47.987536923861
                        ],
                        [
                            1.9477181888055,
                            48.000892790062
                        ],
                        [
                            1.9583090610545,
                            48.004385394545
                        ],
                        [
                            1.9722556041237,
                            48.003035671314
                        ],
                        [
                            1.9805249338975,
                            48.008726206406
                        ],
                        [
                            1.9914870257969,
                            48.012850774035
                        ],
                        [
                            1.99752347919,
                            48.001402419295
                        ],
                        [
                            1.9924530089153,
                            47.990973264858
                        ],
                        [
                            1.9925528173357,
                            47.980714211164
                        ],
                        [
                            2.0030948048261,
                            47.972060588666
                        ],
                        [
                            2.0288291941806,
                            47.975409734869
                        ],
                        [
                            2.0418419896762,
                            47.969278638249
                        ],
                        [
                            2.045805056567,
                            47.967481179143
                        ],
                        [
                            2.0210204330191,
                            47.948769747197
                        ],
                        [
                            2.0292979047806,
                            47.940877819262
                        ],
                        [
                            2.0459276549975,
                            47.934895736931
                        ],
                        [
                            2.0451295915736,
                            47.933993740921
                        ],
                        [
                            2.0598955777532,
                            47.931625180768
                        ],
                        [
                            2.0683874896244,
                            47.926136141825
                        ],
                        [
                            2.0666752056641,
                            47.917966596648
                        ],
                        [
                            2.0719707947109,
                            47.905234543887
                        ],
                        [
                            2.0863936222361,
                            47.895823563404
                        ],
                        [
                            2.0952563125632,
                            47.894777958692
                        ],
                        [
                            2.1026107134831,
                            47.887538766942
                        ],
                        [
                            2.1090755762244,
                            47.876579705653
                        ],
                        [
                            2.1001399168238,
                            47.872020343161
                        ],
                        [
                            2.0760861685281,
                            47.870890191707
                        ],
                        [
                            2.0592002174981,
                            47.865623065094
                        ],
                        [
                            2.0563670480174,
                            47.862096421767
                        ],
                        [
                            2.0426906592825,
                            47.855162320832
                        ],
                        [
                            2.0365430493148,
                            47.855461216668
                        ],
                        [
                            2.0314312210122,
                            47.861293790411
                        ],
                        [
                            2.032986549058,
                            47.876807283441
                        ],
                        [
                            2.0300455422378,
                            47.881300341703
                        ],
                        [
                            2.0175816156829,
                            47.886483542598
                        ],
                        [
                            2.0062161415793,
                            47.886541781467
                        ],
                        [
                            2.004161988333,
                            47.873135251615
                        ],
                        [
                            1.9811565500733,
                            47.855350604897
                        ],
                        [
                            1.9805747604491,
                            47.852425737654
                        ],
                        [
                            1.9971017278815,
                            47.848382891465
                        ],
                        [
                            2.0022015854384,
                            47.84489092303
                        ],
                        [
                            2.0015763124749,
                            47.816963485847
                        ],
                        [
                            1.996634221427,
                            47.806921343395
                        ],
                        [
                            1.9980905836734,
                            47.79833704426
                        ],
                        [
                            2.0026513166423,
                            47.794842186462
                        ],
                        [
                            2.0011571581245,
                            47.788407281886
                        ],
                        [
                            1.9926061323095,
                            47.795127996416
                        ],
                        [
                            1.9830669305238,
                            47.798078019211
                        ],
                        [
                            1.9673168729778,
                            47.799322829654
                        ],
                        [
                            1.970984753585,
                            47.790025580301
                        ],
                        [
                            1.9657264538468,
                            47.787470698082
                        ],
                        [
                            1.9593777233499,
                            47.761342798404
                        ]
                    ]
                ]
            },
            "properties": {
                "city": "Orleans"
            }
        }
    ]
}