{
    "type": "FeatureCollection",
    "features": [
        {
            "type": "Feature",
            "geometry": {
                "type": "Polygon",
                "coordinates": [
                    [
                        [
                            2.3858966707851,
                            48.683483824116
                        ],
                        [
                            2.3880639522468,
                            48.678440754954
                        ],
                        [
                            2.3963381622416,
                            48.673537542833
                        ],
                        [
                            2.37989392464,
                            48.663432762062
                        ],
                        [
                            2.3657714904211,
                            48.646213842917
                        ],
                        [
                            2.3624964391927,
                            48.64795761408
                        ],
                        [
                            2.3649624659437,
                            48.655607620484
                        ],
                        [
                            2.3554708976021,
                            48.670809526976
                        ],
                        [
                            2.3419537905981,
                            48.667574843284
                        ],
                        [
                            2.3381199780472,
                            48.667372819069
                        ],
                        [
                            2.3325887743239,
                            48.679934930364
                        ],
                        [
                            2.3264106694076,
                            48.68650514336
                        ],
                        [
                            2.3281756647382,
                            48.68753871545
                        ],
                        [
                            2.3161461345442,
                            48.691986659645
                        ],
                        [
                            2.3236263394326,
                            48.698324781941
                        ],
                        [
                            2.3250480878698,
                            48.710918269314
                        ],
                        [
                            2.3329261454172,
                            48.710558714181
                        ],
                        [
                            2.344132213294,
                            48.716940480038
                        ],
                        [
                            2.3498870308825,
                            48.734015747021
                        ],
                        [
                            2.3539536652921,
                            48.738659181113
                        ],
                        [
                            2.3368066471512,
                            48.743205388567
                        ],
                        [
                            2.3307477519641,
                            48.748103215323
                        ],
                        [
                            2.3207207141635,
                            48.74875804931
                        ],
                        [
                            2.3162448752028,
                            48.741982183131
                        ],
                        [
                            2.3132939902039,
                            48.730280485815
                        ],
                        [
                            2.3038400608379,
                            48.72948996497
                        ],
                        [
                            2.2983820323129,
                            48.738637828397
                        ],
                        [
                            2.2802904545364,
                            48.733011078618
                        ],
                        [
                            2.274512055777,
                            48.74071589805
                        ],
                        [
                            2.2853936451259,
                            48.747508493238
                        ],
                        [
                            2.2761433268947,
                            48.756655860398
                        ],
                        [
                            2.2593929492592,
                            48.761011671227
                        ],
                        [
                            2.2476645497167,
                            48.761102963541
                        ],
                        [
                            2.2385923949602,
                            48.766463677435
                        ],
                        [
                            2.2328536167843,
                            48.765986233987
                        ],
                        [
                            2.2288438793787,
                            48.774465449016
                        ],
                        [
                            2.2265538842831,
                            48.776101996393
                        ],
                        [
                            2.2266318840334,
                            48.781582704918
                        ],
                        [
                            2.223319655228,
                            48.785943206962
                        ],
                        [
                            2.2115088216259,
                            48.788138691837
                        ],
                        [
                            2.2026391702069,
                            48.798400652391
                        ],
                        [
                            2.1829371404912,
                            48.797227864577
                        ],
                        [
                            2.1767433739305,
                            48.814008838913
                        ],
                        [
                            2.1693154925823,
                            48.815912765582
                        ],
                        [
                            2.1612775429708,
                            48.812781582172
                        ],
                        [
                            2.1507472904881,
                            48.818843890003
                        ],
                        [
                            2.1514696650673,
                            48.821406018964
                        ],
                        [
                            2.148481478956,
                            48.828486428999
                        ],
                        [
                            2.1458671766002,
                            48.836895096745
                        ],
                        [
                            2.1532113486874,
                            48.848852456588
                        ],
                        [
                            2.159873072577,
                            48.847719436355
                        ],
                        [
                            2.1543056853939,
                            48.853048595931
                        ],
                        [
                            2.153758803524,
                            48.864400185419
                        ],
                        [
                            2.1503913622101,
                            48.870861640994
                        ],
                        [
                            2.15831848289,
                            48.880606413153
                        ],
                        [
                            2.1693486998328,
                            48.895814931109
                        ],
                        [
                            2.1742824947702,
                            48.89906687854
                        ],
                        [
                            2.2005910092695,
                            48.908679329899
                        ],
                        [
                            2.22039813682,
                            48.92061341599
                        ],
                        [
                            2.231140371461,
                            48.927732507513
                        ],
                        [
                            2.2211846194098,
                            48.934715158112
                        ],
                        [
                            2.2060953569669,
                            48.940654951382
                        ],
                        [
                            2.205861118488,
                            48.949738062716
                        ],
                        [
                            2.204055266752,
                            48.957105634655
                        ],
                        [
                            2.2097843514844,
                            48.963456477366
                        ],
                        [
                            2.2257328909673,
                            48.971025374495
                        ],
                        [
                            2.2488913822928,
                            48.964772539184
                        ],
                        [
                            2.2622228190132,
                            48.96245963703
                        ],
                        [
                            2.2746219582146,
                            48.964139579874
                        ],
                        [
                            2.2884581275524,
                            48.95897612829
                        ],
                        [
                            2.2986199686098,
                            48.966348852881
                        ],
                        [
                            2.3131712998317,
                            48.962218212702
                        ],
                        [
                            2.3283349938093,
                            48.959659359756
                        ],
                        [
                            2.3333156809749,
                            48.955382350828
                        ],
                        [
                            2.3402077868395,
                            48.963321439936
                        ],
                        [
                            2.353466337548,
                            48.965623824906
                        ],
                        [
                            2.3661602892992,
                            48.974223731282
                        ],
                        [
                            2.3759318950615,
                            48.972018745265
                        ],
                        [
                            2.3824479877976,
                            48.971287207886
                        ],
                        [
                            2.3943172032158,
                            48.962558403369
                        ],
                        [
                            2.4073892851778,
                            48.956124752826
                        ],
                        [
                            2.4188429301039,
                            48.957751826441
                        ],
                        [
                            2.427263253996,
                            48.959221267075
                        ],
                        [
                            2.4475243022066,
                            48.95579842602
                        ],
                        [
                            2.4560099122257,
                            48.955771579179
                        ],
                        [
                            2.4594885661379,
                            48.955049018342
                        ],
                        [
                            2.4673269472292,
                            48.964338344645
                        ],
                        [
                            2.4960054328348,
                            48.972719183153
                        ],
                        [
                            2.5005212403687,
                            48.97528292774
                        ],
                        [
                            2.5018765918412,
                            48.978534817722
                        ],
                        [
                            2.514763879623,
                            48.982255621303
                        ],
                        [
                            2.5183558101117,
                            48.9894603436
                        ],
                        [
                            2.5322372193717,
                            49.005223735412
                        ],
                        [
                            2.5477767707755,
                            49.004873251062
                        ],
                        [
                            2.5530565519414,
                            49.009816202999
                        ],
                        [
                            2.5657856607901,
                            49.012397786393
                        ],
                        [
                            2.5716715859606,
                            48.999841685023
                        ],
                        [
                            2.5758390395296,
                            49.000282714644
                        ],
                        [
                            2.5803194899487,
                            48.991593137352
                        ],
                        [
                            2.5797962900593,
                            48.984984703781
                        ],
                        [
                            2.5634346213721,
                            48.977732430334
                        ],
                        [
                            2.5919093847247,
                            48.949349108138
                        ],
                        [
                            2.5959331868831,
                            48.938608477411
                        ],
                        [
                            2.6031883743191,
                            48.937542806414
                        ],
                        [
                            2.6025997962059,
                            48.929356607315
                        ],
                        [
                            2.5923362853305,
                            48.925020900293
                        ],
                        [
                            2.5888016299799,
                            48.90949078784
                        ],
                        [
                            2.5923641353827,
                            48.90770438289
                        ],
                        [
                            2.5914203681571,
                            48.907146304713
                        ],
                        [
                            2.5838172328399,
                            48.895410384217
                        ],
                        [
                            2.5626276286343,
                            48.888883251177
                        ],
                        [
                            2.5594064582352,
                            48.885336254164
                        ],
                        [
                            2.5702348571309,
                            48.876463404921
                        ],
                        [
                            2.5676272327109,
                            48.865878881164
                        ],
                        [
                            2.5873261857605,
                            48.865005030869
                        ],
                        [
                            2.5831356251086,
                            48.857208607635
                        ],
                        [
                            2.5738417937528,
                            48.853385173417
                        ],
                        [
                            2.586279531474,
                            48.834252121862
                        ],
                        [
                            2.5925149932073,
                            48.825870860417
                        ],
                        [
                            2.5957923214697,
                            48.814260425756
                        ],
                        [
                            2.5922736733656,
                            48.807437551952
                        ],
                        [
                            2.5915437636137,
                            48.797363843187
                        ],
                        [
                            2.5991420754576,
                            48.793212840234
                        ],
                        [
                            2.5856046173972,
                            48.778627130829
                        ],
                        [
                            2.5919605754401,
                            48.77140075822
                        ],
                        [
                            2.6070020497727,
                            48.774401216878
                        ],
                        [
                            2.6148182997206,
                            48.761116417176
                        ],
                        [
                            2.5975493852329,
                            48.76057109667
                        ],
                        [
                            2.6023411143901,
                            48.753730034287
                        ],
                        [
                            2.5961922065253,
                            48.747316344161
                        ],
                        [
                            2.5858204453665,
                            48.741487637605
                        ],
                        [
                            2.5946737376888,
                            48.73180600135
                        ],
                        [
                            2.5852087623188,
                            48.727242137595
                        ],
                        [
                            2.5735833044455,
                            48.71309971947
                        ],
                        [
                            2.5681304477411,
                            48.708975920929
                        ],
                        [
                            2.5688027048808,
                            48.707221723749
                        ],
                        [
                            2.5743424247998,
                            48.700999405067
                        ],
                        [
                            2.5716535034613,
                            48.69201676557
                        ],
                        [
                            2.5538613239117,
                            48.688326690701
                        ],
                        [
                            2.5490013276388,
                            48.689022588285
                        ],
                        [
                            2.5443069213921,
                            48.698449115832
                        ],
                        [
                            2.5310726121952,
                            48.699783892783
                        ],
                        [
                            2.526868486137,
                            48.704730504947
                        ],
                        [
                            2.5295814714706,
                            48.706182162116
                        ],
                        [
                            2.5190795979889,
                            48.712638843537
                        ],
                        [
                            2.5157481028347,
                            48.728940405475
                        ],
                        [
                            2.5100603137322,
                            48.734664596594
                        ],
                        [
                            2.5035392718422,
                            48.735213292289
                        ],
                        [
                            2.4845525554027,
                            48.729072399771
                        ],
                        [
                            2.4753778858699,
                            48.72760051392
                        ],
                        [
                            2.4729799734013,
                            48.727567463669
                        ],
                        [
                            2.4673873361332,
                            48.728713712543
                        ],
                        [
                            2.4549382750663,
                            48.722660904777
                        ],
                        [
                            2.4511551612486,
                            48.714881299466
                        ],
                        [
                            2.4428468316819,
                            48.720689239232
                        ],
                        [
                            2.4401207414166,
                            48.725433667155
                        ],
                        [
                            2.4351282328849,
                            48.724090651622
                        ],
                        [
                            2.4255483771957,
                            48.72270474408
                        ],
                        [
                            2.4142655674791,
                            48.717814439082
                        ],
                        [
                            2.4062314618937,
                            48.712965331676
                        ],
                        [
                            2.4005806703887,
                            48.701769326045
                        ],
                        [
                            2.3899176244148,
                            48.69186153675
                        ],
                        [
                            2.3858966707851,
                            48.683483824116
                        ]
                    ]
                ]
            },
            "properties": {
                "city": "Paris"
            }
        }
    ]
}