{
    "type": "FeatureCollection",
    "features": [
        {
            "type": "Feature",
            "geometry": {
                "type": "Polygon",
                "coordinates": [
                    [
                        [
                            1.3719996818556,
                            43.534422912658
                        ],
                        [
                            1.3750611893289,
                            43.521434515283
                        ],
                        [
                            1.3699401235348,
                            43.524094313558
                        ],
                        [
                            1.3582674111776,
                            43.519091209694
                        ],
                        [
                            1.3401896473791,
                            43.516678855907
                        ],
                        [
                            1.3303066339377,
                            43.523156869226
                        ],
                        [
                            1.3231709421719,
                            43.532006437518
                        ],
                        [
                            1.3104729777505,
                            43.536668191723
                        ],
                        [
                            1.3110658142251,
                            43.538340491075
                        ],
                        [
                            1.3148681827284,
                            43.550705296115
                        ],
                        [
                            1.3285840219722,
                            43.559157183116
                        ],
                        [
                            1.3236877266691,
                            43.566939997447
                        ],
                        [
                            1.293548848081,
                            43.577197083679
                        ],
                        [
                            1.2926211572073,
                            43.584621590669
                        ],
                        [
                            1.3049145097859,
                            43.594740762403
                        ],
                        [
                            1.2841290027456,
                            43.599208588125
                        ],
                        [
                            1.2821568320575,
                            43.598155947613
                        ],
                        [
                            1.2727289060392,
                            43.602980639237
                        ],
                        [
                            1.2627518595799,
                            43.602204170349
                        ],
                        [
                            1.2481312264794,
                            43.606609728667
                        ],
                        [
                            1.2356408526684,
                            43.607121307126
                        ],
                        [
                            1.224196225256,
                            43.611012740156
                        ],
                        [
                            1.2158724292395,
                            43.617506699293
                        ],
                        [
                            1.2038400705128,
                            43.619997707241
                        ],
                        [
                            1.2089302075993,
                            43.626037082372
                        ],
                        [
                            1.2213495636064,
                            43.640782546249
                        ],
                        [
                            1.2365501725297,
                            43.650308453788
                        ],
                        [
                            1.2660933957539,
                            43.666658091775
                        ],
                        [
                            1.2778402281692,
                            43.674187104493
                        ],
                        [
                            1.2999174430934,
                            43.681278253766
                        ],
                        [
                            1.2983648803428,
                            43.692382796193
                        ],
                        [
                            1.2966540796612,
                            43.694479197896
                        ],
                        [
                            1.3239123109497,
                            43.702705721388
                        ],
                        [
                            1.343191771084,
                            43.707272469568
                        ],
                        [
                            1.3464820342517,
                            43.711356430916
                        ],
                        [
                            1.3424779602374,
                            43.715089156257
                        ],
                        [
                            1.3436378715737,
                            43.721834562759
                        ],
                        [
                            1.336972630191,
                            43.727382486171
                        ],
                        [
                            1.3129320755824,
                            43.743509632831
                        ],
                        [
                            1.3121355679352,
                            43.749848996403
                        ],
                        [
                            1.3224379321886,
                            43.746565456776
                        ],
                        [
                            1.335940846361,
                            43.748705028275
                        ],
                        [
                            1.3525467804707,
                            43.75794540444
                        ],
                        [
                            1.3558113028522,
                            43.767198704584
                        ],
                        [
                            1.3626902509273,
                            43.764608435526
                        ],
                        [
                            1.3764732969282,
                            43.757117484857
                        ],
                        [
                            1.3861550086577,
                            43.741804045647
                        ],
                        [
                            1.3891041319457,
                            43.733352291036
                        ],
                        [
                            1.3978055973084,
                            43.738483051599
                        ],
                        [
                            1.4121516805854,
                            43.742873829888
                        ],
                        [
                            1.4154736012613,
                            43.749068538689
                        ],
                        [
                            1.4231361218266,
                            43.750662103539
                        ],
                        [
                            1.4186844437561,
                            43.743760913143
                        ],
                        [
                            1.4217209480493,
                            43.738451593138
                        ],
                        [
                            1.4320639609558,
                            43.731238828537
                        ],
                        [
                            1.446128550312,
                            43.729242618328
                        ],
                        [
                            1.4520036702127,
                            43.726135760137
                        ],
                        [
                            1.4476678782108,
                            43.717191814115
                        ],
                        [
                            1.4409077478903,
                            43.712857058705
                        ],
                        [
                            1.4372143072924,
                            43.706614747065
                        ],
                        [
                            1.4529666755839,
                            43.699359907069
                        ],
                        [
                            1.4615135093693,
                            43.691280342914
                        ],
                        [
                            1.459210844523,
                            43.683972253212
                        ],
                        [
                            1.4615606004321,
                            43.684215202961
                        ],
                        [
                            1.473032664729,
                            43.677907755345
                        ],
                        [
                            1.4734604728219,
                            43.667294939252
                        ],
                        [
                            1.476692455094,
                            43.669771980909
                        ],
                        [
                            1.4838676696968,
                            43.680914935523
                        ],
                        [
                            1.4875418912418,
                            43.680449491927
                        ],
                        [
                            1.5057312634215,
                            43.66969601145
                        ],
                        [
                            1.5167466199058,
                            43.65812118231
                        ],
                        [
                            1.522551804989,
                            43.654695778455
                        ],
                        [
                            1.5350535244859,
                            43.652263158329
                        ],
                        [
                            1.5447204063298,
                            43.656783820864
                        ],
                        [
                            1.5550256404632,
                            43.661268003291
                        ],
                        [
                            1.5579461629152,
                            43.665950524464
                        ],
                        [
                            1.5763989343302,
                            43.661729871263
                        ],
                        [
                            1.577055180058,
                            43.654220315424
                        ],
                        [
                            1.5727360735685,
                            43.646535805674
                        ],
                        [
                            1.5727337380285,
                            43.637668698869
                        ],
                        [
                            1.5758510900173,
                            43.635982610729
                        ],
                        [
                            1.5741347918698,
                            43.619944098281
                        ],
                        [
                            1.5964028483042,
                            43.613384709185
                        ],
                        [
                            1.602599189158,
                            43.618379000785
                        ],
                        [
                            1.6171302116127,
                            43.610055318882
                        ],
                        [
                            1.6135824483379,
                            43.605932629966
                        ],
                        [
                            1.6260550644003,
                            43.602186386199
                        ],
                        [
                            1.6318055889625,
                            43.603184952325
                        ],
                        [
                            1.6259190267636,
                            43.592664639868
                        ],
                        [
                            1.6188418145099,
                            43.586031752903
                        ],
                        [
                            1.6103243278045,
                            43.574227231998
                        ],
                        [
                            1.6122738338545,
                            43.565827446803
                        ],
                        [
                            1.5994511916605,
                            43.568530741696
                        ],
                        [
                            1.5952119904202,
                            43.561869929275
                        ],
                        [
                            1.5828445331446,
                            43.558166364972
                        ],
                        [
                            1.577635340853,
                            43.564250760189
                        ],
                        [
                            1.5658660420163,
                            43.567090780794
                        ],
                        [
                            1.5602627273351,
                            43.567416181274
                        ],
                        [
                            1.5484545845439,
                            43.55685081818
                        ],
                        [
                            1.5573107990882,
                            43.551863817949
                        ],
                        [
                            1.5524929663427,
                            43.541798397143
                        ],
                        [
                            1.5598723103701,
                            43.530733630925
                        ],
                        [
                            1.546470426562,
                            43.534195835152
                        ],
                        [
                            1.5303116243478,
                            43.548169354123
                        ],
                        [
                            1.5153832037193,
                            43.54990816707
                        ],
                        [
                            1.5063036702296,
                            43.557545210255
                        ],
                        [
                            1.4944556225104,
                            43.553529980304
                        ],
                        [
                            1.4859098455484,
                            43.552810891367
                        ],
                        [
                            1.4791991120446,
                            43.557419975949
                        ],
                        [
                            1.4726069069012,
                            43.555299943808
                        ],
                        [
                            1.4609928772263,
                            43.547363444256
                        ],
                        [
                            1.4565143122211,
                            43.538614017911
                        ],
                        [
                            1.4614094348688,
                            43.532692929212
                        ],
                        [
                            1.4406257138534,
                            43.541727323522
                        ],
                        [
                            1.4287714055469,
                            43.546089188487
                        ],
                        [
                            1.4101297204868,
                            43.545859130018
                        ],
                        [
                            1.3905081617335,
                            43.538127655261
                        ],
                        [
                            1.3857268545863,
                            43.537959450811
                        ],
                        [
                            1.3788423725624,
                            43.544199440699
                        ],
                        [
                            1.3679186118408,
                            43.549890627224
                        ],
                        [
                            1.3653665331261,
                            43.544529177334
                        ],
                        [
                            1.3719996818556,
                            43.534422912658
                        ]
                    ]
                ]
            },
            "properties": {
                "city": "Toulouse"
            }
        }
    ]
}